IRIDIUM 155             
1 43573U 18061E   22277.69488709  .00000207  00000+0  66969-4 0  9997
2 43573  86.3921 261.4398 0002522  89.7691 270.3794 14.34219394219641
IRIDIUM 154             
1 43574U 18061F   22277.67583713  .00000209  00000+0  67447-4 0  9991
2 43574  86.3924 261.5163 0001955  92.1636 267.9784 14.34222542219697
IRIDIUM 163             
1 43575U 18061G   22277.79637154  .00000195  00000+0  62656-4 0  9995
2 43575  86.3922 261.4228 0002087  78.7550 281.3880 14.34217640219688
IRIDIUM 156             
1 43576U 18061H   22277.70122825  .00000184  00000+0  58560-4 0  9998
2 43576  86.3922 261.4680 0002432  83.0303 277.1170 14.34216102219665
IRIDIUM 164             
1 43577U 18061J   22277.82173367  .00000203  00000+0  65594-4 0  9996
2 43577  86.3922 261.4373 0001926  87.3465 272.7951 14.34218116219720
IRIDIUM 159             
1 43578U 18061K   22277.79000802  .00000192  00000+0  61581-4 0  9995
2 43578  86.3922 261.4158 0002010  89.9837 270.1589 14.34221397219687
IRIDIUM 180             
1 43922U 19002A   22277.51043719  .00000372  00000+0  12593-3 0  9996
2 43922  86.4044 198.4556 0001588  80.7688 279.3687 14.34223161195256
IRIDIUM 176             
1 43923U 19002B   22277.48518072  .00001374  00000+0  21398-3 0  9998
2 43923  86.6177 198.5038 0002354  86.6253 273.5234 14.72260919200375
IRIDIUM 168             
1 43924U 19002C   22277.29479944  .00000370  00000+0  12491-3 0  9991
2 43924  86.4046 198.5845 0001886  85.3906 274.7505 14.34219913195200
IRIDIUM 173             
1 43925U 19002D   22277.91003817  .00000333  00000+0  11202-3 0  9991
2 43925  86.4043 198.2722 0001908  82.9904 277.1509 14.34216882195275
IRIDIUM 169             
1 43926U 19002E   22277.71410844  .00000468  00000+0  14640-3 0  9990
2 43926  86.4246 229.9085 0006461 104.3714 255.8202 14.38618747195927
IRIDIUM 172             
1 43927U 19002F   22277.48507987  .00000366  00000+0  12353-3 0  9996
2 43927  86.4043 198.4532 0001828  82.9517 277.1887 14.34221143195229
IRIDIUM 175             
1 43928U 19002G   22278.02274879  .00001340  00000+0  20859-3 0  9992
2 43928  86.6180 198.1136 0002209  86.9453 273.2017 14.72254941200445
IRIDIUM 171             
1 43929U 19002H   22277.53581819  .00000363  00000+0  12243-3 0  9995
2 43929  86.4052 198.5880 0001906  86.3932 273.7481 14.34222371195220
IRIDIUM 170             
1 43930U 19002J   22277.49139311  .00001372  00000+0  21374-3 0  9994
2 43930  86.6176 198.5066 0002389  88.9785 271.1706 14.72255275200384
IRIDIUM 167             
1 43931U 19002K   22277.80854632  .00000339  00000+0  11386-3 0  9994
2 43931  86.4042 198.3288 0001716  83.0822 277.0569 14.34222507195262
